QB50P1                  
1 40025U 14033R   26197.01289013  .00004113  00000+0  20193-3 0  9997
2 40025  98.0963 210.1890 0010382 122.1904 238.0337 15.18673121657405
DTUSAT-2                
1 40030U 14033W   26195.97454294  .00003349  00000+0  18144-3 0  9994
2 40030  98.0873 195.4742 0009313 132.4073 227.7947 15.15350472656897
QB50P2                  
1 40032U 14033Y   26196.95650244  .00003941  00000+0  21181-3 0  9991
2 40032  98.0761 195.6369 0009292  81.4745 278.7538 15.15512295657028
PERSEUS-M1              
1 40039U 14033AF  26196.40204849  .00001162  00000+0  10973-3 0  9994
2 40039  97.9654 141.0000 0010919 195.4743 164.6145 14.95716338654859
POLYITAN-1              
1 40042U 14033AJ  26197.01905086  .00011154  00000+0  33885-3 0  9996
2 40042  98.0929 226.0285 0007858  61.8331 298.3703 15.34238045658011
TIGRISAT                
1 40043U 14033AK  26196.88350254  .00000717  00000+0  88309-4 0  9997
2 40043  97.7865 346.2444 0048581 342.0708  17.8792 14.85250731649887
CANX-4                  
1 40055U 14034C   26196.11735289  .00000420  00000+0  61209-4 0  9993
2 40055  98.3083  72.4512 0011424 283.1173  76.8763 14.81311066648663
CANX-5                  
1 40056U 14034D   26196.45319819  .00000410  00000+0  59895-4 0  9995
2 40056  98.3085  72.8445 0011413 282.1246  77.8687 14.81328706639523
GONETS-M 10             
1 40063U 14036C   26196.96755318 -.00000034  00000+0 -32044-3 0  9999
2 40063  82.5128 289.7994 0022944  80.8868 279.4807 12.42945910545826
METEOR-M 2              
1 40069U 14037A   26196.93503973 -.00000214  00000+0 -78720-4 0  9993
2 40069  98.5126 171.6581 0005129 324.5271  35.5565 14.21468619623408
DX1                     
1 40071U 14037C   26196.90172538  .00000631  00000+0  71834-4 0  9992
2 40071  98.3877 160.3501 0007117 168.4189 191.7192 14.90061605650389
UKUBE-1                 
1 40074U 14037F   26196.92229536  .00004031  00000+0  22670-3 0  9999
2 40074  98.4241 203.2234 0003262  86.6441 273.5160 15.13955912652900
GAOFEN-2                
1 40118U 14049A   26197.16258030  .00000270  00000+0  41752-4 0  9993
2 40118  98.0100 261.3403 0008322 131.7573 228.4352 14.80928907643529
BRITE-PL2 (HEWELIUSZ)   
1 40119U 14049B   26197.09335016  .00000468  00000+0  48579-4 0  9999
2 40119  97.9120 309.3212 0014249  19.2816 340.8940 14.94688246645760
CBERS 4                 
1 40336U 14079A   26197.17254712 -.00000073  00000+0 -10522-4 0  9996
2 40336  98.3518 253.0925 0000756  52.8833 307.2422 14.35515878608118
SMAP                    
1 40376U 15003A   26197.13959631  .00000173  00000+0  42453-4 0  9993
2 40376  98.1284 203.8250 0001607  94.6189 265.5196 14.63389587611854
GONETS-M 11             
1 40552U 15020A   26197.14847362 -.00000020  00000+0 -21297-3 0  9991
2 40552  82.4859  12.9410 0015371 301.0918  58.8653 12.42878596512331
GONETS-M 12             
1 40553U 15020B   26197.20215101 -.00000080  00000+0 -65136-3 0  9995
2 40553  82.4893  14.0390 0014237 284.8424  75.1079 12.42891873512337
GONETS-M 13             
1 40554U 15020C   26197.17611628 -.00000103  00000+0 -81728-3 0  9997
2 40554  82.4855  12.6618 0012787 268.6774  91.2841 12.42871581512306
DMC3-FM1                
1 40715U 15032A   26197.16471509  .00000211  00000+0  30226-4 0  9996
2 40715  97.6423  61.1982 0004868 333.7600  26.3369 14.85767174594215
DMC3-FM2                
1 40716U 15032B   26197.18664715  .00000796  00000+0  97503-4 0  9991
2 40716  97.6477  62.8130 0005406 338.8578  21.2414 14.85775778594211
DMC3-FM3                
1 40717U 15032C   26197.14283508  .00000590  00000+0  73787-4 0  9995
2 40717  97.6531  64.5424 0004742 342.4083  17.6968 14.85765538594218
CARBONITE 1 (CBNT-1)    
1 40718U 15032D   26197.18331719  .00000917  00000+0  11707-3 0  9994
2 40718  97.6514  14.0381 0013989 193.6398 166.4441 14.83669097593646
LILACSAT-2              
1 40908U 15049K   26197.15854584  .00011400  00000+0  18830-3 0  9993
2 40908  97.4621 235.1150 0008452 138.6421 221.5472 15.52381660600245
COSMOS 2507 (RODNIK-S *)
1 40920U 15050A   26197.21021553  .00000128  00000+0  85233-3 0  9994
2 40920  82.4906  61.5979 0009007 290.6762  69.3351 12.42927890490465
COSMOS 2508 (RODNIK-S *)
1 40921U 15050B   26197.16550858  .00000095  00000+0  61273-3 0  9995
2 40921  82.4858  60.1197 0013887 324.6996  35.3163 12.42915387490447
