OBJECT_NAME,OBJECT_ID,EPOCH,MEAN_MOTION,ECCENTRICITY,INCLINATION,RA_OF_ASC_NODE,ARG_OF_PERICENTER,MEAN_ANOMALY,EPHEMERIS_TYPE,CLASSIFICATION_TYPE,NORAD_CAT_ID,ELEMENT_SET_NO,REV_AT_EPOCH,BSTAR,MEAN_MOTION_DOT,MEAN_MOTION_DDOT
QB50P1,2014-033R,2026-07-16T00:18:33.707232,15.18673121,.0010382,98.0963,210.1890,122.1904,238.0337,0,U,40025,999,65740,.20193E-3,.4113E-4,0
DTUSAT-2,2014-033W,2026-07-14T23:23:20.510016,15.15350472,.0009313,98.0873,195.4742,132.4073,227.7947,0,U,40030,999,65689,.18144E-3,.3349E-4,0
QB50P2,2014-033Y,2026-07-15T22:57:21.810816,15.15512295,.0009292,98.0761,195.6369,81.4745,278.7538,0,U,40032,999,65702,.21181E-3,.3941E-4,0
PERSEUS-M1,2014-033AF,2026-07-15T09:38:56.989536,14.95716338,.00109196,97.9654,141.0000,195.4743,164.6145,0,U,40039,999,65485,.10973457E-3,.1162E-4,0
POLYITAN-1,2014-033AJ,2026-07-16T00:27:25.994304,15.34238045,.0007858,98.0929,226.0285,61.8331,298.3703,0,U,40042,999,65801,.33885E-3,.11154E-3,0
TIGRISAT,2014-033AK,2026-07-15T21:12:14.619456,14.85250731,.00485818,97.7865,346.2444,342.0708,17.8792,0,U,40043,999,64988,.88309404E-4,.717E-5,0
CANX-4,2014-034C,2026-07-15T02:48:59.289696,14.81311066,.00114247,98.3083,72.4512,283.1173,76.8763,0,U,40055,999,64866,.61209325E-4,.42E-5,0
CANX-5,2014-034D,2026-07-15T10:52:36.323616,14.81328706,.00114138,98.3085,72.8445,282.1246,77.8687,0,U,40056,999,63952,.59894875E-4,.41E-5,0
GONETS-M 10,2014-036C,2026-07-15T23:13:16.594752,12.42945910,.00229448,82.5128,289.7994,80.8868,279.4807,0,U,40063,999,54582,-.32044463E-3,-.34E-6,0
METEOR-M 2,2014-037A,2026-07-15T22:26:27.432672,14.21468619,.00051291,98.5126,171.6581,324.5271,35.5565,0,U,40069,999,62340,-.78719937E-4,-.214E-5,0
DX1,2014-037C,2026-07-15T21:38:29.072832,14.90061605,.00071171,98.3877,160.3501,168.4189,191.7192,0,U,40071,999,65038,.71833573E-4,.631E-5,0
UKUBE-1,2014-037F,2026-07-15T22:08:06.319104,15.13955912,.00032624,98.4241,203.2234,86.6441,273.5160,0,U,40074,999,65290,.22669768E-3,.4031E-4,0
GAOFEN-2,2014-049A,2026-07-16T03:54:06.937920,14.80928907,.0008322,98.0100,261.3403,131.7573,228.4352,0,U,40118,999,64352,.41752E-4,.27E-5,0
BRITE-PL2 (HEWELIUSZ),2014-049B,2026-07-16T02:14:25.453824,14.94688246,.0014249,97.9120,309.3212,19.2816,340.8940,0,U,40119,999,64576,.48579E-4,.468E-5,0
CBERS 4,2014-079A,2026-07-16T04:08:28.071168,14.35515878,.0000756,98.3518,253.0925,52.8833,307.2422,0,U,40336,999,60811,-.10522E-4,-.73E-6,0
SMAP,2015-003A,2026-07-16T03:21:01.121184,14.63389587,.0001607,98.1284,203.8250,94.6189,265.5196,0,U,40376,999,61185,.42453E-4,.173E-5,0
GONETS-M 11,2015-020A,2026-07-16T03:33:48.120768,12.42878596,.0015371,82.4859,12.9410,301.0918,58.8653,0,U,40552,999,51233,-.21297E-3,-.2E-6,0
GONETS-M 12,2015-020B,2026-07-16T04:51:05.847264,12.42891873,.0014237,82.4893,14.0390,284.8424,75.1079,0,U,40553,999,51233,-.65136E-3,-.8E-6,0
GONETS-M 13,2015-020C,2026-07-16T04:13:36.446592,12.42871581,.0012787,82.4855,12.6618,268.6774,91.2841,0,U,40554,999,51230,-.81728E-3,-.103E-5,0
DMC3-FM1,2015-032A,2026-07-16T03:57:11.383776,14.85767174,.0004868,97.6423,61.1982,333.7600,26.3369,0,U,40715,999,59421,.30226E-4,.211E-5,0
DMC3-FM2,2015-032B,2026-07-16T04:28:46.313760,14.85775778,.0005406,97.6477,62.8130,338.8578,21.2414,0,U,40716,999,59421,.97503E-4,.796E-5,0
DMC3-FM3,2015-032C,2026-07-16T03:25:40.950912,14.85765538,.0004742,97.6531,64.5424,342.4083,17.6968,0,U,40717,999,59421,.73787E-4,.59E-5,0
CARBONITE 1 (CBNT-1),2015-032D,2026-07-16T04:23:58.605216,14.83669097,.0013989,97.6514,14.0381,193.6398,166.4441,0,U,40718,999,59364,.11707E-3,.917E-5,0
LILACSAT-2,2015-049K,2026-07-16T03:48:18.360576,15.52381660,.0008452,97.4621,235.1150,138.6421,221.5472,0,U,40908,999,60024,.1883E-3,.114E-3,0
COSMOS 2507 (RODNIK-S 13),2015-050A,2026-07-16T05:02:42.621792,12.42927890,.0009007,82.4906,61.5979,290.6762,69.3351,0,U,40920,999,49046,.85233E-3,.128E-5,0
COSMOS 2508 (RODNIK-S 14),2015-050B,2026-07-16T03:58:19.941312,12.42915387,.0013887,82.4858,60.1197,324.6996,35.3163,0,U,40921,999,49044,.61273E-3,.95E-6,0
